[{"OBJECT_NAME":"STARLINK-34626","OBJECT_ID":"2025-167E","EPOCH":"2026-03-09T22:48:23.488704","MEAN_MOTION":15.30163254,"ECCENTRICITY":0.00014881,"INCLINATION":53.1604,"RA_OF_ASC_NODE":25.2534,"ARG_OF_PERICENTER":79.2368,"MEAN_ANOMALY":280.88,"EPHEMERIS_TYPE":0,"CLASSIFICATION_TYPE":"U","NORAD_CAT_ID":65082,"ELEMENT_SET_NO":999,"REV_AT_EPOCH":3352,"BSTAR":0.00094352376,"MEAN_MOTION_DOT":0.00027658,"MEAN_MOTION_DDOT":0},{"OBJECT_NAME":"AVUM R\/B","OBJECT_ID":"2021-105D","EPOCH":"2026-03-09T22:34:58.119744","MEAN_MOTION":15.31894528,"ECCENTRICITY":0.0086274,"INCLINATION":74.9219,"RA_OF_ASC_NODE":283.347,"ARG_OF_PERICENTER":214.1912,"MEAN_ANOMALY":145.3726,"EPHEMERIS_TYPE":0,"CLASSIFICATION_TYPE":"U","NORAD_CAT_ID":49467,"ELEMENT_SET_NO":999,"REV_AT_EPOCH":23867,"BSTAR":0.00030152064,"MEAN_MOTION_DOT":0.00010411,"MEAN_MOTION_DDOT":0}]
